ASTRA 3B                
1 36581U 10021A   26169.54305998  .00000130  00000+0  00000+0 0  9996
2 36581   1.4731  83.5405 0004153   6.6553  35.5685  1.00271537 58881
COMSATBW-2              
1 36582U 10021B   26169.54106663  .00000082  00000+0  00000+0 0  9991
2 36582   0.0490  68.2984 0002635  34.6969  11.7637  1.00273227 58977
BEIDOU-2 G3             
1 36590U 10024A   26169.62551138 -.00000144  00000+0  00000+0 0  9993
2 36590   4.5198  61.5123 0007753 351.3778 158.8532  1.00270938 58786
BADR-5                  
1 36592U 10025A   26169.54444664  .00000147  00000+0  00000+0 0  9994
2 36592   0.0565 120.9433 0003894  71.3185 300.9832  1.00272750 53236
COMS 1                  
1 36744U 10032A   26169.14747284  .00000070  00000+0  00000+0 0  9996
2 36744   4.8083  75.3434 0011542  11.9093 301.8413  0.99162666 51091
ARABSAT-5A              
1 36745U 10032B   26169.54444664  .00000147  00000+0  00000+0 0  9992
2 36745   0.0541  38.4373 0005891  71.3331  23.5353  1.00275786 58668
ECHOSTAR 15             
1 36792U 10034A   26169.59329071 -.00000006  00000+0  00000+0 0  9990
2 36792   0.0415  70.6534 0002042 350.3043 300.6571  1.00269892 58338
BEIDOU-2 IGSO-1         
1 36828U 10036A   26168.91794174 -.00000086  00000+0  00000+0 0  9995
2 36828  54.3019 162.9525 0059238 225.3267 315.9903  1.00271928 58109
NILESAT 201             
1 36830U 10037A   26169.32316212 -.00000063  00000+0  00000+0 0  9993
2 36830   0.0142 260.9036 0004615 216.2192 258.8136  1.00272588 58384
RASCOM-QAF 1R           
1 36831U 10037B   26169.60861615  .00000012  00000+0  00000+0 0  9990
2 36831   0.0055  24.9204 0006639  59.7785  44.1513  1.00271992 58326
AEHF-1 (USA 214)        
1 36868U 10039A   26168.90270579  .00000138  00000+0  00000+0 0  9996
2 36868   8.2218  68.0425 0003912   9.0891 183.9496  1.00274872 53662
XM-5                    
1 37185U 10053A   26169.58690234 -.00000029  00000+0  00000+0 0  9994
2 37185   0.0620 273.1116 0002652 289.9429 159.8519  1.00270439 57492
BSAT-3B                 
1 37207U 10056B   26169.58641648 -.00000356  00000+0  00000+0 0  9990
2 37207   0.0585 237.8183 0001716 305.4832  44.4619  1.00268645 52110
BEIDOU-2 G4             
1 37210U 10057A   26169.57008891 -.00000120  00000+0  00000+0 0  9990
2 37210   3.6508  68.9381 0005291 196.2918   6.8032  1.00270617 57303
SKYTERRA 1              
1 37218U 10061A   26169.28387662 -.00000126  00000+0  00000+0 0  9993
2 37218   5.1281  50.8593 0002259  10.1886 206.3349  1.00271921 57206
HYLAS 1                 
1 37237U 10065A   26168.89956233  .00000081  00000+0  00000+0 0  9999
2 37237   5.6464  73.0089 0001646  41.3805 129.3742  1.00271013  6890
INTELSAT 17 (IS-17)     
1 37238U 10065B   26169.55146668  .00000000  00000+0  00000+0 0  9998
2 37238   0.0244  72.7578 0002888  40.1363  58.3982  1.00272120 53260
BEIDOU-2 IGSO-2         
1 37256U 10068A   26166.85415660 -.00000214  00000+0  00000+0 0  9990
2 37256  47.5513 271.8488 0055883 212.6776 194.9519  1.00282881 56782
EUTELSAT KA-SAT 9A      
1 37258U 10069A   26169.54011330  .00000055  00000+0  00000+0 0  9990
2 37258   0.0601  13.2607 0003758 117.2858 339.6773  1.00271107 44025
HISPASAT 30W-5          
1 37264U 10070A   26169.38993118 -.00000222  00000+0  00000+0 0  9991
2 37264   0.0517 109.3403 0005191 355.3637 272.3050  1.00271655 53199
KOREASAT 6              
1 37265U 10070B   26169.57008891 -.00000118  00000+0  00000+0 0  9992
2 37265   0.0160  57.3872 0002138  38.7967 175.7319  1.00270879 56781
BEIDOU-2 IGSO-3         
1 37384U 11013A   26169.61194170 -.00000190  00000+0  00000+0 0  9993
2 37384  62.4088  40.1377 0034295 184.6608  10.0015  1.00267082 55679
INTELSAT 28 (IS-28)     
1 37392U 11016A   26169.38958451 -.00000232  00000+0  00000+0 0  9996
2 37392   1.8103  82.6007 0003595   6.0263 286.5334  1.00271560 53293
YAHSAT 1A               
1 37393U 11016B   26169.47751942  .00000000  00000+0  00000+0 0  9995
2 37393   0.0159   8.4013 0002815  83.7992  38.9272  1.00271424 42426
SBIRS GEO-1 (USA 230)   
1 37481U 11019A   26169.19226523  .00000091  00000+0  00000+0 0  9997
2 37481   4.5380  53.1243 0002274  29.7346 304.5958  1.00275270 55401
TELSTAR 14R             
1 37602U 11021A   26169.45463932 -.00000286  00000+0  00000+0 0  9998
2 37602   0.0190  57.6272 0002224   0.6231 309.1089  1.00271822 55846
GSAT-8                  
1 37605U 11022A   26169.54938667  .00000078  00000+0  00000+0 0  9992
2 37605   2.1355  81.8079 0002123 198.5285 239.3125  1.00271205 53234
ST-2                    
1 37606U 11022B   26169.55592853 -.00000218  00000+0  00000+0 0  9994
2 37606   0.0159  33.4293 0001646  63.4436  98.0672  1.00271570 55292
ZHONGXING-10            
1 37677U 11026A   26168.84245069 -.00000193  00000+0  00000+0 0  9993
2 37677   1.0487  84.1808 0003189   5.9650 204.6786  1.00267890 55003
SES-3                   
1 37748U 11035A   26169.51801318 -.00000108  00000+0  00000+0 0  9998
2 37748   1.3312  83.0700 0002297 356.0768 271.0943  1.00271391 54609
KAZSAT-2                
1 37749U 11035B   26169.55549520 -.00000204  00000+0  00000+0 0  9994
2 37749   0.0350 219.3932 0001239 315.8021  18.1013  1.00272055 53413
BEIDOU-2 IGSO-4         
1 37763U 11038A   26167.68545095  .00000019  00000+0  00000+0 0  9991
2 37763  54.6000 165.6770 0159519 231.4431 207.9860  1.00285273 54642
